[{"OBJECT_NAME":"STARLINK-30394","OBJECT_ID":"2023-138C","EPOCH":"2026-03-09T22:00:01.999584","MEAN_MOTION":15.27534692,"ECCENTRICITY":0.00016167,"INCLINATION":43.0011,"RA_OF_ASC_NODE":232.8109,"ARG_OF_PERICENTER":278.3668,"MEAN_ANOMALY":98.2422,"EPHEMERIS_TYPE":0,"CLASSIFICATION_TYPE":"U","NORAD_CAT_ID":57810,"ELEMENT_SET_NO":999,"REV_AT_EPOCH":573,"BSTAR":0.0027116477,"MEAN_MOTION_DOT":0.00075015,"MEAN_MOTION_DDOT":0},{"OBJECT_NAME":"GEOSCAN 1 (RS92S1)","OBJECT_ID":"2025-155E","EPOCH":"2026-03-09T22:44:05.846496","MEAN_MOTION":15.28410635,"ECCENTRICITY":0.00087099,"INCLINATION":97.4463,"RA_OF_ASC_NODE":37.403,"ARG_OF_PERICENTER":153.6429,"MEAN_ANOMALY":206.5255,"EPHEMERIS_TYPE":0,"CLASSIFICATION_TYPE":"U","NORAD_CAT_ID":64880,"ELEMENT_SET_NO":999,"REV_AT_EPOCH":6560,"BSTAR":0.00054367431,"MEAN_MOTION_DOT":0.00014993,"MEAN_MOTION_DDOT":0}]
